[
    {
        "Altitude(m)": 610399.542934155,
        "Argument of Periapsis(deg)": 0.0,
        "Eccentricity": 0.0,
        "Inclination(deg)": 60.0,
        "Latitude(deg)": 52.11137383198572,
        "Longitude(deg)": 12.584157757092981,
        "Mean Anomaly(deg)": 65.45450000000001,
        "RAAN(deg)": 65.0,
        "Satellite Name": "Test1 290",
        "Satellite Number": 290,
        "Semi-Major Axis(m)": 6980739.136638005,
        "Time(s)": 0
    },
    {
        "Altitude(m)": 610481.6945441432,
        "Argument of Periapsis(deg)": 0.00010418945913296404,
        "Eccentricity": 0.0,
        "Inclination(deg)": 60.0,
        "Latitude(deg)": 52.47097765916969,
        "Longitude(deg)": 13.366292745873052,
        "Mean Anomaly(deg)": 66.07460614546183,
        "RAAN(deg)": 64.99957995086025,
        "Satellite Name": "Test1 290",
        "Satellite Number": 290,
        "Semi-Major Axis(m)": 6980739.136638005,
        "Time(s)": 10
    }
]